QIANFAN-89              
1 63175U 25046S   26017.57567562  .00000165  00000+0  23729-3 0  9995
2 63175  88.9795 316.3345 0017927  26.8359 333.3715 13.50990718 52245
QIANFAN-90              
1 63176U 25046T   26017.60441620  .00000173  00000+0  24962-3 0  9995
2 63176  88.9794 316.3039 0014826  26.2165 333.9733 13.50990295 52267
QIANFAN-91              
1 66033U 25233A   26017.63714797  .00000059  00000+0  73330-4 0  9996
2 66033  88.9918  58.4509 0001958  91.5046 268.6330 13.50989785 12851
QIANFAN-92              
1 66034U 25233B   26017.64463498  .00000070  00000+0  90787-4 0  9995
2 66034  88.9903  58.4463 0013869 295.6311  64.3406 13.50258674 12852
QIANFAN-93              
1 66035U 25233C   26017.57949079  .00000091  00000+0  12304-3 0  9993
2 66035  88.9927  58.4649 0007450 293.6532  66.3837 13.50975816 12840
QIANFAN-94              
1 66036U 25233D   26017.61845778  .00000098  00000+0  10641-3 0  9999
2 66036  88.9927  58.3804 0013657 291.1443  68.8256 13.64801832 12891
QIANFAN-95              
1 66037U 25233E   26017.44142031  .00000076  00000+0  44916-4 0  9992
2 66037  88.9899  58.0622 0011816 278.1299  81.8537 13.96702206 13050
QIANFAN-96              
1 66038U 25233F   26017.60011468  .00000079  00000+0  10443-3 0  9990
2 66038  88.9921  58.4653 0001910  89.9832 270.1538 13.50990390 12843
